ONEWEB-0033             
1 45142U 20008M   24289.87273104  .00000383  00000+0  10616-2 0  9992
2 45142  87.8933 157.6010 0001754  71.4869 288.6449 13.10369099228417
ONEWEB-0035             
1 45143U 20008N   24289.90424380 -.00000325  00000+0 -96645-3 0  9996
2 45143  87.8945 157.5821 0001895  76.6187 283.5152 13.10376294228146
ONEWEB-0036             
1 45144U 20008P   24289.58884813 -.00000673  00000+0 -19636-2 0  9992
2 45144  87.8937 157.5973 0001347  77.8997 282.2281 13.10371487228531
ONEWEB-0038             
1 45145U 20008Q   24289.85085089 -.00000362  00000+0 -10565-2 0  9998
2 45145  87.8918 142.4399 0002019 102.1953 257.9402 13.11414576230464
ONEWEB-0040             
1 45147U 20008S   24289.86940370  .00000417  00000+0  11592-2 0  9994
2 45147  87.8944 157.5701 0001607  78.9179 281.2129 13.10370673228068
ONEWEB-0043             
1 45149U 20008U   24289.87105933  .00000478  00000+0  13320-2 0  9993
2 45149  87.8939 157.5701 0001267  90.2570 269.8702 13.10370879228380
ONEWEB-0044             
1 45150U 20008V   24289.89926108 -.00000305  00000+0 -90985-3 0  9996
2 45150  87.8941 157.5577 0001601  84.7440 275.3870 13.10372821228682
